{
  "type": "FeatureCollection",
  "attribution": "Approximate demo footprints based on SFU Facilities open mapping data",
  "features": [
    {
      "type": "Feature",
      "properties": { "id": "aq", "buildingCode": "AQ", "name": "Academic Quadrangle", "height": 22 },
      "geometry": {
        "type": "Polygon",
        "coordinates": [[
          [-122.92038, 49.27772], [-122.91904, 49.27772],
          [-122.91904, 49.27869], [-122.92038, 49.27869],
          [-122.92038, 49.27772]
        ]]
      }
    },
    {
      "type": "Feature",
      "properties": { "id": "wmc", "buildingCode": "WMC", "name": "West Mall Centre", "height": 22 },
      "geometry": {
        "type": "Polygon",
        "coordinates": [[
          [-122.92405, 49.27812], [-122.92308, 49.27812],
          [-122.92308, 49.27878], [-122.92405, 49.27878],
          [-122.92405, 49.27812]
        ]]
      }
    },
    {
      "type": "Feature",
      "properties": { "id": "asb", "buildingCode": "ASB", "name": "Applied Sciences Building", "height": 20 },
      "geometry": {
        "type": "Polygon",
        "coordinates": [[
          [-122.91540, 49.27775], [-122.91441, 49.27775],
          [-122.91441, 49.27838], [-122.91540, 49.27838],
          [-122.91540, 49.27775]
        ]]
      }
    },
    {
      "type": "Feature",
      "properties": { "id": "sub", "buildingCode": "SUB", "name": "Student Union Building", "height": 24 },
      "geometry": {
        "type": "Polygon",
        "coordinates": [[
          [-122.92302, 49.27920], [-122.92202, 49.27920],
          [-122.92202, 49.27985], [-122.92302, 49.27985],
          [-122.92302, 49.27920]
        ]]
      }
    },
    {
      "type": "Feature",
      "properties": { "id": "mbc", "buildingCode": "MBC", "name": "Maggie Benston Centre", "height": 18 },
      "geometry": {
        "type": "Polygon",
        "coordinates": [[
          [-122.92182, 49.27892], [-122.92108, 49.27892],
          [-122.92108, 49.27938], [-122.92182, 49.27938],
          [-122.92182, 49.27892]
        ]]
      }
    }
  ]
}
